bbox,cessation,country_id,deprecated,file_hash,fullname,geom_hash,geom_latitude,geom_longitude,id,inception,iso,iso_country,lastmodified,lbl_latitude,lbl_longitude,locality_id,name,parent_id,path,placetype,region_id,source,superseded_by,supersedes,wof_country
"-0.0005,-0.000282,0.000379,0.000309",uuuu,0,,73f9094ce316041e7e7397c8303ee881,,e019a15d3b3d92817c55fc51e86ba43b,3e-06,1e-05,1,uuuu,XN,XN,1465951935,0.0,0.0,0,Null Island,0,1/1.geojson,country,0,nullisland,,85681319,XN
"-73.969617,40.74811,-73.964853,40.752629",uuuu,102312305,,79bcca1cbb7ff27565f0cc6562897cec,,7ed71bd71aa9b6c897d0bed6f5ee1f31,40.750368,-73.967287,102312305,uuuu,UN,UN,1452297353,40.750362,-73.967323,0,United Nations,102191575,102/312/305/102312305.geojson,country,0,mapzen,,,UN
"113.528491721,22.109443665,113.591268697,22.2171530386",uuuu,85632161,,a5a28bf94ef8040841f75f894adb510a,,4cf93c6d9163de6d9a9759bf3cf84ba2,22.158225,113.557709,85632161,uuuu,MO,MO,1463442751,22.139833,113.563619,0,Macao S.A.R,102191569,856/321/61/85632161.geojson,country,0,quattroshapes,,,MO
"50.31004716,25.547056198,50.825527191,26.345388412",uuuu,85632167,,f6b34d624cf81e0948387a1d528b6b1f,,a1a71a180822fb061ffd994fbb1bef87,26.025432,50.561127,85632167,uuuu,BH,BH,1463442751,26.020458,50.551925,0,Bahrain,102191569,856/321/67/85632167.geojson,country,0,quattroshapes,,,BH
"88.746474,26.702016,92.1251268,28.246987",uuuu,85632171,,1c2761778cf72b200fcb6de81616e094,,1e62ff737bd38dd6c95e764926a9a6b9,27.395689,90.432033,85632171,uuuu,BT,BT,1463442749,27.454772,89.92561,0,Bhutan,102191569,856/321/71/85632171.geojson,country,0,quattroshapes,,,BT
"27.011189,-30.677733,29.456192,-28.570606857",uuuu,85632173,,2d62eeb59ed5a44d038f109aeb5060f7,,3b031bde78c37beadc08fc7fcb0d13fd,-29.583318,28.246545,85632173,uuuu,LS,LS,1463442751,-29.516751,28.163744,0,Lesotho,102191573,856/321/73/85632173.geojson,country,0,quattroshapes,,,LS
"-83.052241,7.204750061,-77.158488,9.648361206",uuuu,85632179,,3173d984d2232dcf2402763e24c564a3,,bd46cfef3fb2c89a8b2a6ad86c0550da,8.512102,-80.11246,85632179,uuuu,PA,PA,1463442750,8.72491,-80.338454,0,Panama,102191575,856/321/79/85632179.geojson,country,0,quattroshapes,,,PA
"92.171808027,9.592888832,101.170272,28.547835",uuuu,85632181,,9e2d97dd89dd43a6ad8ea75f7587d16b,,54fdaf249da71be7f43c3b3d508667b1,21.113608,96.50564,85632181,uuuu,MM,MM,1463442745,21.576814,96.06596,0,Myanmar,102191569,856/321/81/85632181.geojson,country,0,quattroshapes,,,MM
"-63.13794412,18.006999969,-63.0135803121,18.064170659",uuuu,85632185,,a2de4b7eb5de3a24f94d1310b8057317,,df364030ec9d454032d13d4060897ec3,18.039175,-63.063334,85632185,uuuu,SX,SX,1463442751,18.042123,-63.058205,0,Sint Maarten,102191575,856/321/85/85632185.geojson,country,0,quattroshapes,,,SX
"12.445909,41.900276,12.458336,41.907417",uuuu,85632187,,75788cd7a7464a4244fac28f2b25edab,,4b393c82c45fd756c3f769c697538955,41.903395,12.452965,85632187,uuuu,VA,VA,1463442744,41.903542,12.453083,0,Vatican,102191581,856/321/87/85632187.geojson,country,0,quattroshapes,,,VA
"-3.260676,4.735416889,1.19947914281,11.166667",uuuu,85632189,,0f1b3290c40d6de3170a39640d2458e3,,12076a531721ac3858a5953afe49cc0d,7.965218,-1.205938,85632189,uuuu,GH,GH,1463442743,7.85125,-0.982714,0,Ghana,102191573,856/321/89/85632189.geojson,country,0,quattroshapes,,,GH
"38.793674,29.061208,48.6117365207,37.0639492027",uuuu,85632191,,b23b19285122febe34fedc3bde5a90c7,,5467b84dabc7e48e20b5b40fae77fa4d,32.7407,43.689477,85632191,uuuu,IQ,IQ,1463442749,32.765286,43.614805,0,Iraq,102191569,856/321/91/85632191.geojson,country,0,quattroshapes,,,IQ
"95.007080078,-10.9925146964,141.022151,6.081250191",uuuu,85632203,,d5bc4fa884eecbd3d539fe06d915ace8,,2d672010d1547d6b61880828874e0ff1,-2.231787,117.302081,85632203,uuuu,ID,ID,1452290867,-1.003189,101.972332,0,Indonesia,102191569,856/322/03/85632203.geojson,country,0,quattroshapes,,,ID
"52.0,16.650083771,59.837917328,26.505472183",uuuu,85632207,,fcad944d54de080e643962ed4a22bc63,,e5ebb5f3087e5b9d8f4c3122b0101528,20.597493,56.105752,85632207,uuuu,OM,OM,1463442741,22.113184,57.345652,0,Oman,102191569,856/322/07/85632207.geojson,country,0,quattroshapes,,,OM
"-5.521112,9.393889,2.404293,15.085111",uuuu,85632213,,084ce52bd42570c25b91d4abcc7a0ca1,,aa8157a0106ad75a96523d7c24980913,12.276301,-1.74337,85632213,uuuu,BF,BF,1463442743,12.655182,-1.473625,0,Burkina Faso,102191573,856/322/13/85632213.geojson,country,0,quattroshapes,,,BF
"-78.374664,17.703192,-76.187978,18.525092",uuuu,85632215,,88f377eb03d4d2e1eb266e76f2b0d02f,,5042bb7a45c567907345fdaf0fdf37a6,18.155226,-77.31881,85632215,uuuu,JM,JM,1463442738,18.137123,-77.318767,0,Jamaica,102191575,856/322/15/85632215.geojson,country,0,naturalearth,,,JM
"-17.108888626,20.770066173,-8.666665214,27.6687672",uuuu,85632217,,630fe7f30c5454c183b4250e3a449cf6,,f9e28971a45ee15df6fce184f77ec5fc,24.227886,-12.213592,85632217,uuuu,EH,EH,1452290861,23.966331,-12.630321,0,Western Sahara,102191573,856/322/17/85632217.geojson,country,0,quattroshapes,,,EH
"43.222911,-25.598565,50.503917,-11.943617",uuuu,85632223,,4460986e5d5e622136ad165e4ff5ca95,,86fb625b083ad14a868e4d1220cd8deb,-19.373168,46.705998,85632223,uuuu,MG,MG,1463442739,-18.628414,46.704055,0,Madagascar,102191573,856/322/23/85632223.geojson,country,0,naturalearth,,,MG
"29.34,-11.761254,40.445446014,-0.9844065",uuuu,85632227,,98964ae2e9f9d80536a71af93d4d3886,,8e69c90056f96a06376d5158a4263d07,-6.263311,34.8204,85632227,uuuu,TZ,TZ,1465246923,-5.869032,34.800732,0,Tanzania,102191573,856/322/27/85632227.geojson,country,0,quattroshapes,,,TZ
"60.475769,29.377217,74.889862,38.490733",uuuu,85632229,,9380622d04744209b90c3877ec3f352f,,b06bccb49f0a9cd95def6b3b9e635b3d,33.831599,66.026521,85632229,uuuu,AF,AF,1463442727,34.159326,66.51551,0,Afghanistan,102191569,856/322/29/85632229.geojson,country,0,quattroshapes,,,AF
"125.074584961,33.112861633,130.950393677,38.61841203",uuuu,85632231,,2242db10b0ac81bd57690590cb9de9d8,,8e3599e968031e5a208b3b8757359e4c,36.356622,127.806138,85632231,uuuu,KR,KR,1463442730,36.382192,128.123986,0,South Korea,102191569,856/322/31/85632231.geojson,country,0,quattroshapes,,,KR
"-54.475744,2.109287,-51.62335968,5.74976548914",uuuu,85632233,,f6534f2ce4a13fbf08c476ff204bfcd3,,5895dc9b0139aeb40b53f9c7aae17576,3.96667,-53.200297,85632233,uuuu,GF,GF,1463442743,4.054185,-53.061337,0,French Guiana,-1,856/322/33/85632233.geojson,country,0,quattroshapes,,,GF
"19.998903,-26.907545,29.375304,-17.778158",uuuu,85632235,,fba5bd334f74110b6b09da7790b9ee14,,6cc18037efc3bb917a2996288f0ebb57,-22.187383,23.814767,85632235,uuuu,BW,BW,1463442737,-22.108313,24.191388,0,Botswana,102191573,856/322/35/85632235.geojson,country,0,quattroshapes,,,BW
"100.083872,13.90972,107.69483,22.502872",uuuu,85632241,,c907a4fcd6717072e95540b5d26bfb2c,,635ce47f1bd983b42e9e295b3b4adfa7,18.495567,103.770039,85632241,uuuu,LA,LA,1463442733,19.43535,102.560667,0,Laos,102191569,856/322/41/85632241.geojson,country,0,quattroshapes,,,LA
"25.237368,-22.421999,33.068163857,-15.609319",uuuu,85632243,,d419fd324c80bca6151264722f6b033d,,8bfe8fffff92084c70460faa6f85487a,-19.0,29.872164,85632243,uuuu,ZW,ZW,1463442739,-18.919508,29.946601,0,Zimbabwe,102191573,856/322/43/85632243.geojson,country,0,quattroshapes,,,ZW
"8.505056,1.654551,16.207723,13.081141",uuuu,85632245,,c3f7682176531343569b6d2374d5f9bf,,1dbeb8f2f1926ff9249ada44b593d863,5.693058,12.736984,85632245,uuuu,CM,CM,1463442733,4.585076,12.473672,0,Cameroon,102191573,856/322/45/85632245.geojson,country,0,naturalearth,,,CM
"0.776667,6.230061426,3.843343,12.408552333",uuuu,85632247,,b53edeea1e3eddb0c7691a05ffac3655,,ea13a9908ebab912494c2c83b4af7846,9.652995,2.338755,85632247,uuuu,BJ,BJ,1463442730,10.330607,2.362221,0,Benin,102191573,856/322/47/85632247.geojson,country,0,quattroshapes,,,BJ
"-11.4992656246,4.352805614,-7.369255,8.551986",uuuu,85632249,,5f4562be130f92b11ba037746edf5f6b,,1da0f2c2250e487617ecf3a64633ff79,6.447572,-9.309791,85632249,uuuu,LR,LR,1463442734,6.445025,-9.449891,0,Liberia,102191573,856/322/49/85632249.geojson,country,0,quattroshapes,,,LR
"34.572765,16.370945,55.637565,32.121348",uuuu,85632253,,e8ccebf6a3fca3f371de505c49f9621d,,fea449a8f3a05ede11dca39aaf74c060,24.122327,44.536864,85632253,uuuu,SA,SA,1463442743,23.806678,44.700847,0,Saudi Arabia,102191569,856/322/53/85632253.geojson,country,0,naturalearth,,,SA
"32.997734,3.404137,48.001056,14.894214",uuuu,85632257,,0303271439a2c473e45e0c866823985b,,19a6a3316b0eabb682b9639cf27857d3,8.633117,39.632616,85632257,uuuu,ET,ET,1463442738,7.996115,38.896778,0,Ethiopia,102191573,856/322/57/85632257.geojson,country,0,quattroshapes,,,ET
"43.213227,-12.380304,44.529063,-11.361261",uuuu,85632259,,aab72d4af9c7593c58c052cc7f8d801f,,48fd472f124d7511262b0ede5c753318,-11.884217,43.680164,85632259,uuuu,KM,KM,1463442733,-11.727683,43.318094,0,Comoros,102191573,856/322/59/85632259.geojson,country,0,naturalearth,,,KM
"-92.011558533,-5.013975021,-75.188793945,1.665833354",uuuu,85632261,,422d6469a560868dc596c868ad673395,,b933a13ee4d94a5fe1ec0f895d6f4e77,-1.426932,-78.775014,85632261,uuuu,EC,EC,1463442740,-1.241567,-78.322784,0,Ecuador,102191577,856/322/61/85632261.geojson,country,0,quattroshapes,,,EC
"166.522079468,-20.251249313,170.213745117,-13.071249962",uuuu,85632263,,354d9f57d939d811c88d78ad10d9735e,,c3f4f0557dbc4d49cd4b913c61fe1b3b,-16.204628,167.703777,85632263,uuuu,VU,VU,1463442729,-15.388977,166.885687,0,Vanuatu,102191583,856/322/63/85632263.geojson,country,0,quattroshapes,,,VU
"0.166667,11.693756,15.999034,23.499999964",uuuu,85632269,,e1e419f99a9b4bfdf1754f8525ef6b2f,,e21ed6bd51772edcd29ee6f63276eee6,17.410127,9.402888,85632269,uuuu,NE,NE,1463442742,17.431408,9.521564,0,Niger,102191573,856/322/69/85632269.geojson,country,0,quattroshapes,,,NE
"-61.93372345,10.041138649,-60.494609833,11.363471985",uuuu,85632271,,0e513932e15b111be744db5d57c39fd4,,dea19789a87b13b7cdd9d7e1b2db44cb,10.472075,-61.261992,85632271,uuuu,TT,TT,1463442730,10.435364,-61.264793,0,Trinidad and Tobago,102191575,856/322/71/85632271.geojson,country,0,quattroshapes,,,TT
"11.674555779,-18.039104,24.084445,-4.387944",uuuu,85632281,,fa21571192a1db31c3440075e4499269,,1bd8868a2527ceaf548b763cc312360e,-12.298995,17.547888,85632281,uuuu,AO,AO,1463442729,-12.180859,17.996347,0,Angola,102191573,856/322/81/85632281.geojson,country,0,quattroshapes,,,AO
"29.000993,-4.4691805,30.850173,-2.309987",uuuu,85632285,,08f28c67e6c9db2b40b847961b825530,,34c72e59b108dd0e1c7b2f198f011a95,-3.365469,29.891759,85632285,uuuu,BI,BI,1463442736,-3.397104,29.877803,0,Burundi,102191573,856/322/85/85632285.geojson,country,0,quattroshapes,,,BI
"5.60211134,-1.461277723,11.3333,3.787055492",uuuu,85632287,,e7074209a73bb3ce7adc111f61a1f882,,ac6988282300a129649d531c5ff087af,1.704284,10.332114,85632287,uuuu,GQ,GQ,1463442727,1.586111,10.464682,0,Equatorial Guinea,102191573,856/322/87/85632287.geojson,country,0,quattroshapes,,,GQ
"97.343396,5.6128955,105.636812,20.465047",uuuu,85632293,,8d9ca378a3e8690550e9524e42c7f2ba,,32a1dde4ec26f16e7f4cec87a815f37a,15.107267,101.011652,85632293,uuuu,TH,TH,1452290858,15.512883,101.301707,0,Thailand,102191569,856/322/93/85632293.geojson,country,0,quattroshapes,,,TH
"-70.062408,12.41767,-69.87682,12.632148",uuuu,85632295,,bb787cb9b45e83a9f9f485cc6cf8fd3e,,c5192bd375334b470e8f015ce1df5eff,12.516935,-69.974201,85632295,uuuu,AW,AW,1463442735,12.517399,-69.972795,0,Aruba,102191575,856/322/95/85632295.geojson,country,0,naturalearth,,,AW
"50.750473022,24.471118,52.42124939,26.183721542",uuuu,85632299,,881b9242ca5c6784b8e3c20e9bfeb865,,3c033a34fc0ffd7c8c58ad9cca635865,25.284253,51.191145,85632299,uuuu,QA,QA,1463442736,25.199602,51.160939,0,Qatar,102191569,856/322/99/85632299.geojson,country,0,quattroshapes,,,QA
"28.861754,-2.83984,30.899118,-1.047572",uuuu,85632303,,bfa1c6c648b8ab3e03e91bcbd8836997,,48d26211ee34bf0d267d9e2ad1080180,-2.000401,29.925336,85632303,uuuu,RW,RW,1463442839,-1.89815,30.095066,0,Rwanda,102191573,856/323/03/85632303.geojson,country,0,quattroshapes,,,RW
"72.643753052,-0.702944458,73.745414734,7.108749866",uuuu,85632305,,cb7dc39bcc40d42c15b414068c680391,,48518913cec9c7096cf27b094a19834d,3.68964,73.199364,85632305,uuuu,MV,MV,1463442829,-0.614771,73.093739,0,Maldives,102193527,856/323/05/85632305.geojson,country,0,quattroshapes,,,MV
"46.493672,40.568584,87.3153995,55.441984",uuuu,85632307,,0b938949cb5be7b943480359dc6bbcc1,,2fd0561ce491c927f22bd40c515481b5,48.164713,67.270657,85632307,uuuu,KZ,KZ,1463442844,48.401963,69.258345,0,Kazakhstan,102191569,856/323/07/85632307.geojson,country,0,quattroshapes,,,KZ
"79.52162184,5.91455555,81.880386353,9.832083702",uuuu,85632313,,3776832e2be405ebc1f015c11748d9b8,,dc03daf51787ff80b7700e7c2c2cc3a2,7.620404,80.70041,85632313,uuuu,LK,LK,1463442848,7.622919,80.68822,0,Sri Lanka,102191569,856/323/13/85632313.geojson,country,0,quattroshapes,,,LK
"34.2672578,29.481163492,35.6699225,33.290743",uuuu,85632315,,ec71dd14bc4d6467bc821edb95253834,,b6c3ddbc6176ac25659924ed6c926763,31.356156,34.966592,85632315,uuuu,IL,IL,1463442839,30.902941,34.860794,0,Israel,102191569,856/323/15/85632315.geojson,country,0,quattroshapes,,,IL
"-73.351558,0.647529,-59.805666,12.499055862",uuuu,85632317,,7805f01a7ff94e4f892eb1728b5323bb,,208dbcef43dbddc6392bde6664ad3dc7,7.133888,-66.150128,85632317,uuuu,VE,VE,1463442833,7.18646,-64.568705,0,Venezuela,102191577,856/323/17/85632317.geojson,country,0,quattroshapes,,,VE
"41.759722,10.931944,43.444526672,12.7136972557",uuuu,85632319,,45d772c09cd2685564e7775011da00fb,,f7e5b443b8612331daf4b64165f536c1,11.743267,42.580357,85632319,uuuu,DJ,DJ,1463442839,11.927315,42.454406,0,Djibouti,102191573,856/323/19/85632319.geojson,country,0,quattroshapes,,,DJ
"-89.355961,12.984225,-82.389137268,17.418722153",uuuu,85632323,,5c8ef2976ff1c369ddbf659e01dc2091,,37f413ac5b756ce739f87e880757a6d8,14.82234,-86.615837,85632323,uuuu,HN,HN,1463442840,14.762778,-86.920196,0,Honduras,102191575,856/323/23/85632323.geojson,country,0,quattroshapes,,,HN
"13.47,7.442975,24.000001,23.449228",uuuu,85632325,,5e38d6c0c66c8a95b865bad145821406,,54397d3187d3feeecfa3ea5628512a8f,15.375822,18.667944,85632325,uuuu,TD,TD,1463442848,15.21002,18.76924,0,Chad,102191573,856/323/25/85632325.geojson,country,0,quattroshapes,,,TD
"33.909829,-4.680055809,41.9068382,4.631039",uuuu,85632329,,2d42c9cac34f837f6aa97a44a1c7ecf6,,ee67074e91b8204a4da35dc4c5f415c2,0.533965,37.860792,85632329,uuuu,KE,KE,1463442829,0.543716,37.918308,0,Kenya,102191573,856/323/29/85632329.geojson,country,0,quattroshapes,,,KE
"131.172088623,2.910388947,134.727081299,8.092055321",uuuu,85632331,,33ad5e061e4fb655e0aa1d3fd86adadc,,48834cd5cf3667b008d0c2e3d13b853d,7.396121,134.499529,85632331,uuuu,PW,PW,1463442835,7.497679,134.581978,0,Palau,102191583,856/323/31/85632331.geojson,country,0,quattroshapes,,,PW
"-61.80588913,11.982999802,-61.378833771,12.53786087",uuuu,85632335,,420fd212a5d1e4a368005fcd29013ea0,,55b143aa5644941b941965c6321aa124,12.155005,-61.659759,85632335,uuuu,GD,GD,1463442839,12.11396,-61.688501,0,Grenada,102191575,856/323/35/85632335.geojson,country,0,quattroshapes,,,GD
"-80.486305237,20.912055969,-72.712913513,27.274610519",uuuu,85632339,,142a21065c267a60511d5ae8f70c2979,,c3332485cba2e0bdc2ad43d9ce9245bb,24.262399,-76.631515,85632339,uuuu,BS,BS,1463442835,24.669637,-78.018505,0,The Bahamas,102191575,856/323/39/85632339.geojson,country,0,quattroshapes,,,BS
"1.41376,42.428743,1.786576,42.655765",uuuu,85632343,,694a442091fa11bd446d4f35944d1521,,587bb5fa824078ef6978f164ea7db5ec,42.545472,1.57628,85632343,uuuu,AD,AD,1463442841,42.547076,1.576286,0,Andorra,102191581,856/323/43/85632343.geojson,country,0,quattroshapes,,,AD
"140.849211,-11.636326,155.96754,-1.346368",uuuu,85632347,,41bc2a33eb428710f3920029f4d0e0e5,,340bd28f939c32272d2a0fe1c632b036,-6.470121,145.231524,85632347,uuuu,PG,PG,1463442831,-5.695438,143.910495,0,Papua New Guinea,102191583,856/323/47/85632347.geojson,country,0,naturalearth,,,PG
"55.219,-21.372,55.845,-20.857",uuuu,85632351,,615248cf6be4aec761ad924f88ba3f04,,0f3afec0006ed1ddffdedf34a01348ea,-21.1145,55.532,85632351,uuuu,RE,RE,1463442848,-21.1145,55.532,0,Reunion,102193527,856/323/51/85632351.geojson,country,0,naturalearth,,,RE
"-62.638051,-27.588334,-54.258562,-19.287659",uuuu,85632355,,a89c856afe3b26a678a1b8403f4f4dbe,,cad9910cf5a5b52233fa813f1c4c9e59,-23.23457,-58.395033,85632355,uuuu,PY,PY,1463442840,-21.686079,-60.13994,0,Paraguay,102191577,856/323/55/85632355.geojson,country,0,quattroshapes,,,PY
"56.572029114,-20.528722763,63.502082825,-10.326333046",uuuu,85632357,,5cbdc33ab59013c71cbf2a0809817330,,7d7a43330ecd4570a4572f42a4805b7b,-20.119972,57.882687,85632357,uuuu,MU,MU,1463442840,-20.321973,57.534935,0,Mauritius,102193527,856/323/57/85632357.geojson,country,0,quattroshapes,,,MU
"102.333542,9.907055855,107.627687,14.690179",uuuu,85632359,,6c3cf9868e3c6ad623abb992c2178fc6,,d1b79f6ad5b5a1b49519900f37018ca2,12.710386,104.916899,85632359,uuuu,KH,KH,1463442837,12.635759,104.480812,0,Cambodia,102191569,856/323/59/85632359.geojson,country,0,quattroshapes,,,KH
"44.031891,25.060388565,63.3332005,39.781676",uuuu,85632361,,d2f2040a5bd886c1b562420ab30e054a,,e703f172db5d3c1b70256c21c99862bb,32.561186,54.303325,85632361,uuuu,IR,IR,1463442841,31.931398,55.245317,0,Iran,102191569,856/323/61/85632361.geojson,country,0,quattroshapes,,,IR
"-17.546278,12.307289,-11.348607,16.693054",uuuu,85632365,,4845ababcdd70aaa2ee85d9fad179154,,ea456e21e147ea94024b21c4a36a31fb,14.36242,-14.467137,85632365,uuuu,SN,SN,1463442828,15.13855,-14.768082,0,Senegal,102191573,856/323/65/85632365.geojson,country,0,quattroshapes,,,SN
"-61.08127594,13.704750061,-60.873306274,14.108416557",uuuu,85632369,,b9a9cd1406b04b44ab80e9e94f56d334,,9a01a409e7f0b24b47d891085c040f80,13.896369,-60.967792,85632369,uuuu,LC,LC,1463442848,13.896235,-60.974929,0,Saint Lucia,102191575,856/323/69/85632369.geojson,country,0,quattroshapes,,,LC
"-56.408611298,46.748416901,-56.082359314,47.142501831",uuuu,85632371,,8fd05f3316188594095cf7fc64de53c0,,72a1d27ec84a7894aa337a23ab34f68d,46.932242,-56.310215,85632371,uuuu,PM,PM,1463442832,47.042405,-56.34943,0,Saint Pierre and Miquelon,136253037,856/323/71/85632371.geojson,country,0,quattroshapes,,,PM
"20.452423,40.853344,23.034093,42.3736305",uuuu,85632373,,4ba3226781ef3638500611703d052a9e,,8dc486006aaabb52937e449a5cf2632b,41.600288,21.700726,85632373,uuuu,MK,MK,1463442849,41.569245,21.547313,0,Macedonia,102191581,856/323/73/85632373.geojson,country,0,quattroshapes,,,MK
"40.965385,-1.696283,51.417038,11.989119",uuuu,85632379,,f4ec07d8686d3730dd489893c52381b4,,98d6f37d3968a240edffbdea7a3faf7f,4.748837,45.706144,85632379,uuuu,SO,SO,1463442839,3.568925,45.19238,0,Somalia,102191573,856/323/79/85632379.geojson,country,0,naturalearth,,,SO
"32.678889,-17.135278,35.924166,-9.36718125",uuuu,85632383,,ca2f502050c6cf838945da6512fddac9,,4fe7b3b545f0e23d001dfbc394475d59,-13.221586,34.30758,85632383,uuuu,MW,MW,1463442848,-13.404159,33.658495,0,Malawi,102191573,856/323/83/85632383.geojson,country,0,quattroshapes,,,MW
"-92.231153152,13.740028,-88.2310572985,17.815687",uuuu,85632385,,6da97676468a344bd78d495207a5f5d2,,d29baabdcbe0d939bcf20b0654798ec0,15.697019,-90.357506,85632385,uuuu,GT,GT,1463442839,14.989397,-90.522408,0,Guatemala,102191575,856/323/85/85632385.geojson,country,0,quattroshapes,,,GT
"14.415098,2.223053,27.458305,11.017957",uuuu,85632391,,c2b22fb07e6cfddcfd0844de5f14377f,,1be0e9796c45f1ca6dd6e615522f94d0,6.577783,20.484777,85632391,uuuu,CF,CF,1463442832,6.986429,21.668827,0,Central African Republic,102191573,856/323/91/85632391.geojson,country,0,quattroshapes,,,CF
"25.664527893,35.80768,44.818128,42.104165",uuuu,85632393,,28d8aaba525b919585a33babbcb42d18,,627acddc04f6aa6bab31fdf80b367718,39.059334,35.167961,85632393,uuuu,TR,TR,1463442830,39.339547,34.51052,0,Turkey,102191569,856/323/93/85632393.geojson,country,0,quattroshapes,,,TR
"23.178943,51.262011,32.77682,56.172485",uuuu,85632395,,a8d31b237258571c86856252fbc0801f,,6f1572582c1519e73c51e5994fd58d76,53.54186,28.049461,85632395,uuuu,BY,BY,1463442837,53.832259,28.43651,0,Belarus,102191581,856/323/95/85632395.geojson,country,0,quattroshapes,,,BY
"-61.414728,1.164724,-57.133470372,8.52589858981",uuuu,85632397,,d7cb773c17822bde46e2cdaa46148744,,0bfc84f503b65d4aa4c0d69fbcae653c,4.972835,-59.08882,85632397,uuuu,GY,GY,1463442840,5.121996,-58.912352,0,Guyana,102191577,856/323/97/85632397.geojson,country,0,quattroshapes,,,GY
"46.55304001,28.524446,48.777942657,30.103699062",uuuu,85632401,,861eae74b71cb69ba3e9bc4b1dba9d67,,8bd2c91159981784303b494953769408,29.354403,47.613542,85632401,uuuu,KW,KW,1463442931,29.422226,47.330015,0,Kuwait,102191569,856/324/01/85632401.geojson,country,0,quattroshapes,,,KW
"116.702026367,20.705389023,122.10294342,26.396249771",uuuu,85632403,,3b0cb9502c18cc49c02af656062d5b7b,,ffa98c2c48dfca926400fc0226f1c710,23.754764,120.952016,85632403,uuuu,TW,TW,1463442931,23.798532,120.955426,0,Taiwan,102191569,856/324/03/85632403.geojson,country,0,quattroshapes,,,TW
"19.262861252,39.644481996,21.057282,42.661082",uuuu,85632405,,4828e3d70346289bbd9acdd137e0a00f,,7edebf8496859961b4000f6cc8b713c0,41.13913,20.066431,85632405,uuuu,AL,AL,1463442929,40.647186,20.127352,0,Albania,102191581,856/324/05/85632405.geojson,country,0,quattroshapes,,,AL
"8.697889328,-3.96000897397,14.5268934,2.318109",uuuu,85632407,,3bcb9fbb165835a0293e85b0d5f1922c,,34874fd5b87a674a14e56158692ff804,-0.605461,11.788417,85632407,uuuu,GA,GA,1463442935,-0.586328,11.547829,0,Gabon,102191573,856/324/07/85632407.geojson,country,0,quattroshapes,,,GA
"35.7135849,32.311136,42.376309,37.320569",uuuu,85632413,,86f908c5a0369a43acb71be9f2bcd198,,6e800d97dd475cae3f7c979ff85421e2,35.031835,38.517544,85632413,uuuu,SY,SY,1463442940,35.008917,38.290599,0,Syria,102191569,856/324/13/85632413.geojson,country,0,quattroshapes,,,SY
"-61.806362152,15.834527969,-60.997081757,16.518693924",uuuu,0,,a477a11f30699a2b904d9f180914dde5,,7e626909468a3c3105927656baf6fe70,16.201607,-61.53471,85632423,uuuu,GP,GP,1463442932,16.200657,-61.682832,0,Guadeloupe,102191575,856/324/23/85632423.geojson,country,0,quattroshapes,,,GP
"34.955471039,29.185036,39.301154,33.374735",uuuu,85632425,,11dc3a595074d0e5869b09b085c4bbf5,,28699274175b2c9b57b62fa11acd3781,31.249689,36.787824,85632425,uuuu,JO,JO,1463442942,30.802278,36.391378,0,Jordan,102191569,856/324/25/85632425.geojson,country,0,quattroshapes,,,JO
"122.934585571,20.422889709,153.987060547,45.522888184",uuuu,85632429,,08af4fa71f08390c1abd273cee30c683,,479e3a674e91b91fed86ce812a5f4c93,37.529345,137.94476,85632429,uuuu,JP,JP,1463442925,36.13793,138.441899,0,Japan,102191569,856/324/29/85632429.geojson,country,0,quattroshapes,,,JP
"137.37461853,1.025388837,163.035827637,10.090389252",uuuu,85632431,,514f8335ce4c6ca615a7d2d7d21441a1,,8a0c5fe1564cb2b359dc558900403cf1,7.162667,154.491969,85632431,uuuu,FM,FM,1463442929,6.881557,158.221135,0,Federated States of Micronesia,102191583,856/324/31/85632431.geojson,country,0,quattroshapes,,,FM
"-74.482940674,18.02041626,-71.62181,20.088388443",uuuu,85632433,,0a6326b5ec404791065bbcbc34beaf2e,,ce3ff0f228fdf4f7dfdd04a12e6e6346,18.936379,-72.688703,85632433,uuuu,HT,HT,1463442942,19.251299,-72.294701,0,Haiti,102191575,856/324/33/85632433.geojson,country,0,quattroshapes,,,HT
"32.267887115,34.632303,34.091220856,35.19455719",uuuu,85632437,,31776f22538a544a30bb269b5e19a886,,31b36deed97fdd504c99cd5b40fc19a4,34.916415,32.988458,85632437,uuuu,CY,CY,1463442940,34.881852,33.011051,0,Cyprus,102191569,856/324/37/85632437.geojson,country,0,quattroshapes,,,CY
"87.73762,41.58152,119.931949,52.148696",uuuu,85632439,,54b4cf81ab6c5bfbcdc56f9420a0a4a8,,93ee8a327cba771eab5eb73097a909fa,46.836005,103.06909,85632439,uuuu,MN,MN,1463442929,45.99339,104.159557,0,Mongolia,102191569,856/324/39/85632439.geojson,country,0,quattroshapes,,,MN
"-69.161224365,11.978750229,-68.641281128,12.397861481",uuuu,85632441,,fe3aa1e305d2e7baad1da06fc9c92479,,ee6bfa207bd4f74d9138c79be612ab25,12.196377,-68.967874,85632441,uuuu,CW,CW,1463442930,12.150201,-68.933415,0,Curacao,102191575,856/324/41/85632441.geojson,country,0,quattroshapes,,,CW
"-58.070506,1.837306,-53.978763,6.016638756",uuuu,85632443,,ea7f304c7db58972c7ac210161813137,,070407b13c2338b74d72abb50ea7b948,4.139468,-55.906476,85632443,uuuu,SR,SR,1463442932,4.165951,-55.945507,0,Suriname,102191577,856/324/43/85632443.geojson,country,0,quattroshapes,,,SR
"-8.602059,4.352833271,-2.493031,10.740015",uuuu,85632449,,40d1a7cd4db1f2532e0eeb850c68187d,,988ff25bb28e5750f890343df2dea433,7.621754,-5.553038,85632449,uuuu,CI,CI,1463442930,7.568978,-5.495164,0,Ivory Coast,102191573,856/324/49/85632449.geojson,country,0,quattroshapes,,,CI
"-8.66667,18.968147,11.999999301,37.088748932",uuuu,85632451,,56c4af2e55ac9a199cdf3dd49dccbc6b,,cd674aaf63702025843c3ccb59d4646d,28.150344,2.675699,85632451,uuuu,DZ,DZ,1463442941,27.89689,3.379277,0,Algeria,102191573,856/324/51/85632451.geojson,country,0,quattroshapes,,,DZ
"-176.21963501,-22.342082977,-173.700439453,-15.560416222",uuuu,85632455,,8409bca6b2d35bfc8535b520bb4a68a9,,b8c35eaceacfda48c64abe5710c46b3a,-19.842767,-174.817922,85632455,uuuu,TO,TO,1463442932,-21.230852,-175.14127,0,Tonga,102191583,856/324/55/85632455.geojson,country,0,quattroshapes,,,TO
"-4.830888748,54.041168213,-4.307610989,54.416194916",uuuu,85632461,,d063dfb7246d5f50413713acb280da4d,,a622feea4af45e1d5302de967fd1300c,54.225532,-4.539121,85632461,uuuu,IM,IM,1463442935,54.255204,-4.49708,0,Isle of Man,102191581,856/324/61/85632461.geojson,country,0,quattroshapes,,,IM
"80.052222,26.347779,88.199298,30.446945",uuuu,85632465,,ba5fe8e1cb290c3b68aa87265a98ff20,,a7139b6e5bd0b5091acdb07427fdfd46,28.257628,83.943041,85632465,uuuu,NP,NP,1463442924,28.323184,83.60374,0,Nepal,102191569,856/324/65/85632465.geojson,country,0,quattroshapes,,,NP
"-13.302072,6.921616,-10.271683,9.999973",uuuu,85632467,,1db5354c90ab5fe1a986dd3d450b3ef8,,0af68b66d1ad577df75f0a6431b918e0,8.559959,-11.789689,85632467,uuuu,SL,SL,1463442931,8.616007,-11.756202,0,Sierra Leone,102191573,856/324/67/85632467.geojson,country,0,quattroshapes,,,SL
"68.162429718,8.073694229,97.176678,33.232855536",uuuu,85632469,,2e1a7571db74c0f0433b1bbccfa696a0,,8e15ee047f051d61affe2e295ff0f4ae,22.348248,79.356693,85632469,uuuu,IN,IN,1463442937,22.412321,79.132924,0,India,102191569,856/324/69/85632469.geojson,country,0,quattroshapes,,,IN
"88.008589006,20.590360641,92.680115,26.634243",uuuu,85632475,,8d0da6ab04e3be984bddebf4bffd102a,,4dddebd603259b4a9f674168b9250b30,23.837247,90.268247,85632475,uuuu,BD,BD,1463442933,24.045958,90.032723,0,Bangladesh,102191569,856/324/75/85632475.geojson,country,0,quattroshapes,,,BD
"113.83277904,22.1519718,114.44125356,22.561907333",uuuu,85632483,,363f82c6e6fe7b95f15b9f4b8dc9afa5,,5e061e01fcc0279057d9ee0b40639f4e,22.381131,114.135572,85632483,uuuu,HK,HK,1463442940,22.440384,114.098975,0,Hong Kong S.A.R.,102191569,856/324/83/85632483.geojson,country,0,quattroshapes,,,HK
"-87.097473145,5.50144434,-82.552657,11.219681",uuuu,85632487,,9f99951f00b9c9ea7ea52f91fe53c3ed,,54d9bd569059c066baa1c8a7045f4fac,9.971356,-84.197567,85632487,uuuu,CR,CR,1463442924,10.068183,-84.028584,0,Costa Rica,102191575,856/324/87/85632487.geojson,country,0,quattroshapes,,,CR
"-59.652637482,13.044833183,-59.420749664,13.335861206",uuuu,85632491,,b2e167b1c695adbedb3f4b4952196db9,,ad462cd606653376c575bdb4078f1ecb,13.172783,-59.557497,85632491,uuuu,BB,BB,1463442929,13.144115,-59.555728,0,Barbados,102191575,856/324/91/85632491.geojson,country,0,quattroshapes,,,BB
"96.821,-12.2,96.936,-11.804",uuuu,85632495,,7928f5ecc9df9a72e03c206c9ad02b81,,108daf501e6477f58448b9faa98d47fa,-12.002,96.8785,85632495,uuuu,CC,CC,1463442931,-12.002,96.8785,0,Indian Ocean Territories,102191569,856/324/95/85632495.geojson,country,0,naturalearth,,,CC
"42.545746,12.111444,54.540294,18.995638",uuuu,85632499,,04d182713b3ea6791633a379ade1bf89,,3d7238d0c2c990536c674862037b4806,15.905421,47.590602,85632499,uuuu,YE,YE,1463442931,15.328226,45.874382,0,Yemen,102191569,856/324/99/85632499.geojson,country,0,naturalearth,,,YE
"-61.488723755,15.204555511,-61.249526978,15.637916565",uuuu,85632503,,47a42ce79f93b6a1b0dd1116d3d13e8d,,c33c63b939a7084c4ba651a62f9536bd,15.432059,-61.359059,85632503,uuuu,DM,DM,1463442860,15.460196,-61.356841,0,Dominica,102191575,856/325/03/85632503.geojson,country,0,quattroshapes,,,DM
"-73.56036,-55.059555054,-53.637481,-21.780814",uuuu,85632505,,fc7d64af5f7b1caa3d91339f96f52dff,,830e0e78460a4bed438ba9dc26788eb1,-35.386406,-65.167366,85632505,uuuu,AR,AR,1463442851,-33.528049,-64.168459,0,Argentina,102191577,856/325/05/85632505.geojson,country,0,quattroshapes,,,AR
"116.927085876,4.505388737,126.60458374,21.125415802",uuuu,85632509,,287dd170245cd54c799190cfdb5daa4d,,15e6b830b92ba24b13695fee535fef43,11.737001,122.863263,85632509,uuuu,PH,PH,1463442862,16.932122,121.387948,0,Philippines,102191569,856/325/09/85632509.geojson,country,0,quattroshapes,,,PH
"-58.4393004,-34.976249695,-53.077756095,-30.085215",uuuu,85632511,,85e818ef3c869b51677e3d21ebdc0edf,,0f5641f75393ce064cda2649518d8670,-32.79565,-56.017681,85632511,uuuu,UY,UY,1463442870,-32.838882,-56.01682,0,Uruguay,102191577,856/325/11/85632511.geojson,country,0,quattroshapes,,,UY
"67.342012,36.672037,75.1538255,41.044367",uuuu,85632513,,2b3c8fb368628ce3855e57659fedc924,,7e02487f50dd9245d1cb5a7358ddbdb4,38.527586,71.00741,85632513,uuuu,TJ,TJ,1463442869,38.185311,72.571946,0,Tajikistan,102191569,856/325/13/85632513.geojson,country,0,quattroshapes,,,TJ
"-81.737724304,-4.22711,-66.851923,14.471972466",uuuu,85632519,,e2715bcb2cf0238a10fc894246003aba,,f9f0c72e21a5656b15662d95468efd37,3.906986,-73.080551,85632519,uuuu,CO,CO,1463442859,3.420497,-73.166783,0,Colombia,102191577,856/325/19/85632519.geojson,country,0,quattroshapes,,,CO
"-81.328781128,-18.351788101,-68.652329,-0.038777",uuuu,85632521,,35fa50ca8dd59ae1063211e66a13e429,,c193f95472823b4900a5264ab40af276,-9.170911,-74.357813,85632521,uuuu,PE,PE,1463442867,-12.98078,-72.876651,0,Peru,102191577,856/325/21/85632521.geojson,country,0,quattroshapes,,,PE
"45.014556885,-13.004611015,45.297916412,-12.633749962",uuuu,85632523,,4dc9045c3561d78cc23fd99ce89f4092,,c7e7ff152badf292e9570f375f38e3e9,-12.819329,45.145812,85632523,uuuu,YT,YT,1463442866,-12.808077,45.149966,0,Mayotte,102191573,856/325/23/85632523.geojson,country,0,quattroshapes,,,YT
"-62.353027344,16.932027817,-61.657554626,17.730417252",uuuu,85632529,,130a6cb52834818e23fa65f224c7edcb,,0f115f4ee72a80c84f3204a9dbc84c45,17.27815,-61.799121,85632529,uuuu,AG,AG,1463442849,17.06938,-61.809739,0,Antigua and Barbuda,102191575,856/325/29/85632529.geojson,country,0,quattroshapes,,,AG
"-61.235221863,14.384944916,-60.815860748,14.876805305",uuuu,85632531,,3d198f9391402a83e606d8b7e12dc781,,90c6b3eac77f9a36a69bc8c3643730da,14.649411,-61.023176,85632531,uuuu,MQ,MQ,1463442856,14.703527,-61.061899,0,Martinique,102191575,856/325/31/85632531.geojson,country,0,quattroshapes,,,MQ
"35.103668107,33.055026,36.62372,34.69208",uuuu,85632533,,633028b5273e9b0b0c3d4f224d0ed11f,,15c032d75f4b7466ab1d12c8a2f0fc81,33.921502,35.893878,85632533,uuuu,LB,LB,1463442870,34.095838,35.95658,0,Lebanon,102191569,856/325/33/85632533.geojson,country,0,quattroshapes,,,LB
"11.734472275,-28.970639,25.261752,-16.963485",uuuu,85632535,,a8df58601b1e761eb1930942e7398e8b,,905f8fbf0527d1516e4ebf60e706b9bb,-22.139622,17.222159,85632535,uuuu,NA,NA,1463442861,-20.586347,17.119649,0,Namibia,102191573,856/325/35/85632535.geojson,country,0,quattroshapes,,,NA
"11.1532420114,-5.03138888,18.643611,3.707791",uuuu,85632541,,26dde7443b3d9379b62f9a4284ba9081,,164fd17d6ee0608a2741f0723382f86f,-0.839669,15.222886,85632541,uuuu,CG,CG,1463442857,0.133504,15.904453,0,Republic of Congo,102191573,856/325/41/85632541.geojson,country,0,quattroshapes,,,CG
"-90.133533128,13.154138565,-87.68157959,14.450557",uuuu,85632545,,2a51114c5e872f2bbe0e648d04a73aa3,,176db156df0320dfdee78e457bac147b,13.734086,-88.866013,85632545,uuuu,SV,SV,1463442856,13.762548,-88.952198,0,El Salvador,102191575,856/325/45/85632545.geojson,country,0,quattroshapes,,,SV
"-2.709555626,49.400390625,-2.155305624,49.738750458",uuuu,85632547,,41edc6b7d0f80895f62eb659b18112f0,,0bfad4eb7c8f0be41bf92bd42af5beb9,49.484744,-2.516711,85632547,uuuu,GG,GG,1463442854,49.454813,-2.566659,0,Guernsey,102191581,856/325/47/85632547.geojson,country,0,quattroshapes,,,GG
"-62.86794281,17.092027664,-62.54202652,17.416250229",uuuu,85632551,,ced5d11be629202f222074a6cfb70609,,1effd0ebb90433a4b75755d6685378fa,17.270286,-62.704037,85632551,uuuu,KN,KN,1463442870,17.340311,-62.767596,0,Saint Kitts and Nevis,102191575,856/325/51/85632551.geojson,country,0,quattroshapes,,,KN
"-12.238885,10.147811,4.26738276,25.001084",uuuu,85632553,,a5acfb673ddfd97e5c2c85167564afb1,,e34c305ff05aff42889a80659fcae1e5,17.349899,-3.516035,85632553,uuuu,ML,ML,1463442869,18.683211,-2.015109,0,Mali,102191573,856/325/53/85632553.geojson,country,0,quattroshapes,,,ML
"21.996388,-18.077418,33.702222,-8.203284",uuuu,85632559,,ed37f307326bfac311d17ad62a82e153,,7816f1915238b3cafaebe144b014a174,-13.454028,27.797599,85632559,uuuu,ZM,ZM,1463442856,-14.936526,25.940824,0,Zambia,102191573,856/325/59/85632559.geojson,country,0,quattroshapes,,,ZM
"-61.465499878,12.575333595,-61.11958313,13.38041687",uuuu,85632569,,452c3b58ce7970a30c95961197eb2860,,53f24d450313fbab6379373a8673c3c0,13.1923,-61.206681,85632569,uuuu,VC,VC,1463442866,13.23357,-61.199573,0,Saint Vincent and the Grenadines,102191575,856/325/69/85632569.geojson,country,0,quattroshapes,,,VC
"-89.227586,15.8856215,-87.48210907,18.495942",uuuu,85632571,,1b544748017e642022fbd9cd771c0c27,,5872fb48c77916840b1bf1c462d8ede1,17.207057,-88.690251,85632571,uuuu,BZ,BZ,1463442854,17.206637,-88.714488,0,Belize,102191575,856/325/71/85632571.geojson,country,0,quattroshapes,,,BZ
"51.497112274,22.631513764,56.381248474,26.069654",uuuu,85632573,,def94d3bbd3c50645907252a37bc588f,,3dcc20f6c6ac4871d6dda498692bee0e,23.910293,54.330345,85632573,uuuu,AE,AE,1463442871,23.47438,54.576046,0,United Arab Emirates,102191569,856/325/73/85632573.geojson,country,0,quattroshapes,,,AE
"24.696775,22.0,36.24955368,31.67099",uuuu,85632581,,68268b42e7d59fc778849c7fadb3ca68,,be32e2dd3046b4ea47ae81e5a7b6ae27,26.569487,29.77332,85632581,uuuu,EG,EG,1463442850,26.42231,29.227089,0,Egypt,102191573,856/325/81/85632581.geojson,country,0,quattroshapes,,,EG
"124.041738,-9.504195,127.345727898,-8.134583473",uuuu,85632583,,3aaa35cacc479f353882892bfe307ce5,,676ed3bdcc36b84492e0dd16e7ec8aba,-8.820426,125.853832,85632583,uuuu,TL,TL,1463442869,-8.801828,125.866054,0,East Timor,102191569,856/325/83/85632583.geojson,country,0,quattroshapes,,,TL
"155.512924194,-12.5980787289,170.100418091,-5.000416756",uuuu,85632591,,00af2447ac1b0a0baaddca1f1b62e89f,,2f70dc9465056ecbafe8a148ae45a7a5,-8.890989,159.594827,85632591,uuuu,SB,SB,1463442855,-8.078523,159.243596,0,Solomon Islands,102191583,856/325/91/85632591.geojson,country,0,quattroshapes,,,SB
"-2.252888918,48.89541626,-1.784611106,49.297943115",uuuu,85632593,,110fbad4fad208fdaf38ade1a6dab7a1,,08ee71ef728259f6b95bc44d4e55fefb,49.208376,-2.13072,85632593,uuuu,JE,JE,1463442854,49.224297,-2.130418,0,Jersey,102191581,856/325/93/85632593.geojson,country,0,quattroshapes,,,JE
"-87.692337036,10.708055,-82.550392151,15.030275",uuuu,85632599,,c29f5544e31f04bab178265f0b22cf10,,6fdfc9bc6f4983e2a657527df8bcc498,12.845499,-85.03852,85632599,uuuu,NI,NI,1463442860,12.793313,-85.039545,0,Nicaragua,102191575,856/325/99/85632599.geojson,country,0,quattroshapes,,,NI
"-16.817083359,13.065307926,-13.798611,13.826389",uuuu,85632603,,2da2c15ede00efc8acf076b67ed2d47e,,f5e1430047cb7d1a450a9a2ad38da22a,13.4531,-15.387105,85632603,uuuu,GM,GM,1463442876,13.505929,-15.362493,0,Gambia,102191573,856/326/03/85632603.geojson,country,0,quattroshapes,,,GM
"103.63583661,1.15396544458,104.4067842,1.47030983258",uuuu,85632605,,9b8b642d7e4832e8ddb2fe8f1cacc46e,,f56beab4bc2a12c3052fbfa32154aa60,1.360758,103.816575,85632605,uuuu,SG,SG,1463442872,1.357685,103.80938,0,Singapore,102191569,856/326/05/85632605.geojson,country,0,quattroshapes,,,SG
"176.066445212,-10.7692017918,179.896416525,-5.63750699778",uuuu,85632607,,0d44ecf1ef20d6a5c0ac8c0615fca1c8,,bed291445961246c29630ff3244276b9,-7.643199,178.184973,85632607,uuuu,TV,TV,1463442905,-8.534062,179.208387,0,Tuvalu,102191583,856/326/07/85632607.geojson,country,0,quattroshapes,,,TV
"15.716074,42.559212,19.618885,45.284524",uuuu,85632609,,5f1efebfa6843d6c3b2a5fe6baf1e890,,e14dd12fc1cf65118fa899bc3cdcf22f,44.171734,17.773408,85632609,uuuu,BA,BA,1463442897,44.091039,18.06843,0,Bosnia and Herzegovina,102191581,856/326/09/85632609.geojson,country,0,naturalearth,,,BA
"-69.64499,-22.89809,-57.453803,-9.669323",uuuu,85632623,,b3476150c3a291b9aae2b428165527db,,a034459a04f96985de806a7456592e97,-16.712028,-64.662468,85632623,uuuu,BO,BO,1463442899,-16.640652,-64.661928,0,Bolivia,102191577,856/326/23/85632623.geojson,country,0,quattroshapes,,,BO
"29.573558429,-1.4814835,35.033049,4.218628",uuuu,85632625,,e48ce6c18ce7db7974e46d4905fe268c,,49c47f7f831e59a8324f41e19b124a4c,1.278252,32.391663,85632625,uuuu,UG,UG,1463442905,0.90406,32.443764,0,Uganda,102191573,856/326/25/85632625.geojson,country,0,quattroshapes,,,UG
"9.391466,19.5,25.14937068,33.166110996",uuuu,85632627,,c478b6b312235825acb56f6a5d6a461d,,73429d41428fce4407c161166848734f,27.044044,18.029402,85632627,uuuu,LY,LY,1463442876,26.666955,18.030248,0,Libya,102191573,856/326/27/85632627.geojson,country,0,quattroshapes,,,LY
"30.79064,-27.317396,32.134844462,-25.71792",uuuu,85632635,,a0c3df2a99e7faa13dc9ebc16ffdf55c,,f8e9307e3c228f76d4fed8a523595cdd,-26.56576,31.497665,85632635,uuuu,SZ,SZ,1463442897,-26.574488,31.484912,0,Swaziland,102191573,856/326/35/85632635.geojson,country,0,quattroshapes,,,SZ
"124.185386658,37.6767837072,130.699450576,43.01159",uuuu,85632639,,517a01ccbe95ab44a5d1a836eb464e14,,e946b4274a0ec10bcf5bb8dc76842190,40.143512,127.173304,85632639,uuuu,KP,KP,1463442874,40.248916,126.699424,0,North Korea,102191569,856/326/39/85632639.geojson,country,0,quattroshapes,,,KP
"12.201992072,-13.459035,31.314611,5.392003",uuuu,85632643,,edd41123c2a5cfd1929536b1c1d0d52f,,3fe23e461d0cf70f8e43f01afddb9cd6,-2.877746,23.655647,85632643,uuuu,CD,CD,1463442900,-2.271721,23.513592,0,Democratic Republic of the Congo,102191573,856/326/43/85632643.geojson,country,0,quattroshapes,,,CD
"55.998218,37.172257,73.148946,45.590075",uuuu,85632645,,ace70c55b301f9610f3576d407f37085,,600f769a1accdf391c56361ca7220284,41.774572,63.124064,85632645,uuuu,UZ,UZ,1463442875,41.726948,63.960684,0,Uzbekistan,102191569,856/326/45/85632645.geojson,country,0,quattroshapes,,,UZ
"-0.144042,6.11228345355,1.80905,11.139552264",uuuu,85632647,,f57cd4e86f3fb65bc790d104eca724c4,,7e19b6c64d9b4fe927fdfefc2ce50cb0,8.53181,0.978788,85632647,uuuu,TG,TG,1463442872,8.846267,1.073832,0,Togo,102191573,856/326/47/85632647.geojson,country,0,quattroshapes,,,TG
"23.440849,3.4889865,35.948997,12.236389",uuuu,85632657,,c4d775efc0cf4e6531117139a59db122,,838f1c239d4d57f7217c09eb43fc69dd,7.332293,30.202165,85632657,uuuu,SS,SS,1463442898,7.170803,30.109512,0,South Sudan,102191573,856/326/57/85632657.geojson,country,0,quattroshapes,,85632477,SS
"60.844379,23.694525,77.048971,37.054484",uuuu,85632659,,f6cdaf957df073db84a66b07318aef11,,64b94eccd945f331b92bc7fa23fbc9ec,29.948497,69.341343,85632659,uuuu,PK,PK,1463442876,29.328493,68.546268,0,Pakistan,102191569,856/326/59/85632659.geojson,country,0,quattroshapes,,,PK
"46.19952774,-10.219611168,56.298751831,-3.712055445",uuuu,85632661,,88259e7e7d80557ed127626d04272dcc,,a98e4fe3edf8641f93517920cdd7b780,-6.722489,51.818587,85632661,uuuu,SC,SC,1463442905,-4.681046,55.482794,0,Seychelles,102193527,856/326/61/85632661.geojson,country,0,quattroshapes,,,SC
"160.80619812,4.571194649,172.163772583,14.657917023",uuuu,85632663,,1bea1357a56a40ccd2e3f486c53ed7c4,,f25f21be40434bc8ff0a3a50a5543899,8.512687,169.015454,85632663,uuuu,MH,MH,1463442871,8.710837,171.237308,0,Marshall Islands,102191583,856/326/63/85632663.geojson,country,0,quattroshapes,,,MH
"18.43398,41.8463449651,20.352911,43.558743",uuuu,85632667,,7b78797110f564bc21d69795a7714d13,,5c165fa21348eda42aeec6106c5e10b5,42.786412,19.251705,85632667,uuuu,ME,ME,1463442897,42.782845,19.157424,0,Montenegro,102191581,856/326/67/85632667.geojson,country,0,quattroshapes,,,ME
"52.437671,35.140647,66.645782,42.791188",uuuu,85632671,,467cd03c7e7a9011884f3eb7dfa8368d,,36e2348c75d55d2ea74d3fb4c1596c03,39.115934,59.375961,85632671,uuuu,TM,TM,1463442872,39.869796,58.676541,0,Turkmenistan,102191569,856/326/71/85632671.geojson,country,0,naturalearth,,,TM
"-84.952079773,19.826250076,-74.133781433,23.277082443",uuuu,85632675,,68e62004ba0728861d23af200079c431,,d66269f303b262d00743f6434fbeb32b,21.62654,-79.034169,85632675,uuuu,CU,CU,1463442902,21.329612,-77.967722,0,Cuba,102191575,856/326/75/85632675.geojson,country,0,quattroshapes,,,CU
"-17.070134,14.721273,-4.833334483,27.294444463",uuuu,85632679,,e982f4347baad5fa9b2a021e99b2a9cf,,0eab887c0eb4a0c1dda4281338ec2792,20.253806,-10.337533,85632679,uuuu,MR,MR,1463442876,19.599264,-9.737341,0,Mauritania,102191573,856/326/79/85632679.geojson,country,0,quattroshapes,,,MR
"-172.782582,-14.05283,-171.437693,-13.462823",uuuu,85632681,,3972a0cb9c0f5be6ba0123eefe480b49,,19b7d1c29e58e4d82ece3ce73b973a79,-13.754596,-172.161249,85632681,uuuu,WS,WS,1463442871,-13.63914,-172.438241,0,Samoa,102191583,856/326/81/85632681.geojson,country,0,naturalearth,,,WS
"-179.999983092,41.185353,179.999983111,81.86164093",uuuu,85632685,,f84bac1033cc0f53b265ab5aa39fb09f,,65288c4c0086dd839ad46289b8224289,61.996728,96.665965,85632685,uuuu,RU,RU,1463442879,63.314401,93.884016,0,Russia,102191581,856/326/85/85632685.geojson,country,0,quattroshapes,,,RU
"-15.394583702,7.190909,-7.637853,12.6745792",uuuu,85632691,,0f93f83fd441749e05d2c538f7ea6f1e,,c34661739c567dd227b91027591d9088,10.439596,-10.932205,85632691,uuuu,GN,GN,1463442872,10.625075,-9.951975,0,Guinea,102191573,856/326/91/85632691.geojson,country,0,quattroshapes,,,GN
"-17.013743,21.419971,-1.031999,35.926519",uuuu,85632693,,b56fbe7c9c20ea130ec6e8c2bb60af88,,691aacbb2d5c61122cbb000fe3a49127,29.841692,-8.396435,85632693,uuuu,MA,MA,1463442872,31.649504,-7.189711,0,Morocco,102191573,856/326/93/85632693.geojson,country,0,naturalearth,,85632209,MA
"73.499414,20.226222992,134.77281,53.560974",uuuu,85632695,,fbf0ac2a0877d3f61c27c391f58a6196,,9085a709ae75eaa091bc5bafaeb4617e,36.6249,103.909865,85632695,uuuu,CN,CN,1452291151,32.523743,106.431983,0,China,102191569,856/326/95/85632695.geojson,country,0,quattroshapes,,,CN
"7.479832,30.228905,11.564131,37.345201",uuuu,85632703,,46fc39ab02085a88c29247d712017bb6,,ea61329cb2454aa2680132ff9c7ed586,34.119405,9.554626,85632703,uuuu,TN,TN,1463442822,33.687264,9.007775,0,Tunisia,102191573,856/327/03/85632703.geojson,country,0,naturalearth,,,TN
"-174.546310425,-11.445416451,176.84538269,4.725972176",uuuu,85632709,,d9a28c7541d68c18e732dd842bdfc2b9,,18080f9a610d131329fea7ffd4818c35,0.625966,-43.735435,85632709,uuuu,KI,KI,1463442824,1.828988,-157.373327,0,Kiribati,102191583,856/327/09/85632709.geojson,country,0,quattroshapes,,,KI
"-72.007414,17.467027664,-68.325416565,19.933805466",uuuu,85632713,,2348caecf293456335ed6de9072a41e7,,1c6da092abfc410fbad7f2c5d9fc022d,18.894233,-70.495588,85632713,uuuu,DO,DO,1463442826,19.105937,-70.804224,0,Dominican Republic,102191575,856/327/13/85632713.geojson,country,0,quattroshapes,,,DO
"-180.0,-90.0,180.0,-60.516209",uuuu,85632715,,8fd9feb10aff48ddc58d91f51a806310,,6c71ec4a4aa07cb3e3d3dc8f8f1d386f,-80.508219,19.908399,85632715,uuuu,AQ,AQ,1462977604,-79.843222,35.885456,0,Antarctica,102191579,856/327/15/85632715.geojson,country,0,naturalearth,,"85681139,85681147",AQ
"44.774559,38.392645,50.625743,41.890442",uuuu,85632717,,de96ebe404db3f8bbd39f44836447601,,b3d4fa39eaccd2a88d4327bad68770c9,40.289119,47.542111,85632717,uuuu,AZ,AZ,1463442822,40.402387,47.210994,0,Azerbaijan,102191569,856/327/17/85632717.geojson,country,0,naturalearth,,,AZ
"-25.366277695,14.801250458,-22.662137985,17.210416794",uuuu,85632721,,3301a560dd457079fb9b11b9285e3f24,,a5c628e4479bf2ac24e3c50f0edfc477,15.948478,-23.983693,85632721,uuuu,CV,CV,1463442826,15.04732,-23.618479,0,Cape Verde,102191573,856/327/21/85632721.geojson,country,0,quattroshapes,,,CV
"-68.419555664,12.028721809,-62.942943573,17.648555756",uuuu,85632727,,3b99cc15ea796f1171f89f9fc1b7ae7b,,7610d2da94d14c8d71ea80b31d5beb82,12.80458,-67.689731,85632727,uuuu,AN,AN,1452290982,12.194274,-68.249092,0,Netherlands,-1,856/327/27/85632727.geojson,country,0,quattroshapes,136251281,,AN
"30.21555,-26.8681615,40.848751068,-10.477194786",uuuu,85632729,,78cfcfa869fa5b48c121215add84ace5,,ef8004fe6a9c667cafa14d720f837aba,-17.260097,35.55384,85632729,uuuu,MZ,MZ,1463442751,-13.885531,37.837456,0,Mozambique,102191573,856/327/29/85632729.geojson,country,0,quattroshapes,,,MZ
"42.67008,8.001139,48.939110555,11.535471916",uuuu,85632733,,c8c91619b11262c8cc56cb853a8254e3,,e98ec8b3655f749c91ab56e98fc3f879,9.725679,46.275584,85632733,uuuu,XS,XS,1452290989,9.439981,46.750416,0,Somaliland,102191573,856/327/33/85632733.geojson,country,0,quattroshapes,,,XS
"2.676932,4.275388718,14.677982,13.885645",uuuu,85632735,,37c679b8b240eb17330fce9b631cecce,,f4c6d968347c0761525a3d83ae7e2740,9.591652,8.101818,85632735,uuuu,NG,NG,1463442822,9.404974,7.607418,0,Nigeria,102191573,856/327/35/85632735.geojson,country,0,quattroshapes,,,NG
"99.640388489,0.853821,119.27544408,7.483749866",uuuu,85632739,,b9fa7c4fe13accf20ab702ce4e62bd29,,16abcc802a385208542255163c90076e,3.794597,109.72322,85632739,uuuu,MY,MY,1452290980,2.521947,113.833569,0,Malaysia,102191569,856/327/39/85632739.geojson,country,0,quattroshapes,,,MY
"166.906993,-0.551853,166.958263,-0.490411",uuuu,85632747,,773622c7aa30cc2bd8420904c2217e51,,c8f0898e61e320d3660d0d4c02bc8270,-0.520783,166.933132,85632747,uuuu,NR,NR,1463442822,-0.520261,166.932644,0,Nauru,102191583,856/327/47/85632747.geojson,country,0,naturalearth,,,NR
"114.076123,4.002508,115.36051932,5.04955575",uuuu,85632749,,abf82c296354157e3cf6fcc1c07cf9ab,,3430346404b713622d44f00ef827b2ae,4.52306,114.749236,85632749,uuuu,BN,BN,1463442822,4.479716,114.578687,0,Brunei,102191569,856/327/49/85632749.geojson,country,0,quattroshapes,,,BN
"21.814939,9.488887,38.842945099,23.188804626",uuuu,85632751,,44e58d3b512d6c7847003ead171a1e7c,,0e0e02fd1dcdb45b84d20b682404f42c,16.138653,30.056644,85632751,uuuu,SD,SD,1463442827,16.34997,29.381307,0,Sudan,102191573,856/327/51/85632751.geojson,country,0,quattroshapes,,,SD
"-180.0,-21.73865895,180.0,-12.457111359",uuuu,85632755,,593055dbff3b8d0da4f63f8b709f2769,,b90a3742b94ea2511128e9021974268c,-17.442914,160.603683,85632755,uuuu,FJ,FJ,1463442824,-17.834016,177.972004,0,Fiji,102191583,856/327/55/85632755.geojson,country,0,quattroshapes,,,FJ
"-16.711827519,10.857889175,-13.626523,12.684722",uuuu,85632757,,b1379f7e5e5fe27bcd44967aba93d08c,,df52d0e0bc7e5a7f3c0fe32065b64c4f,12.013056,-14.977735,85632757,uuuu,GW,GW,1463442825,12.157338,-14.513869,0,Guinea Bissau,102191573,856/327/57/85632757.geojson,country,0,quattroshapes,,,GW
"69.250998,39.180254,80.226559,43.265357",uuuu,85632761,,9a9a5b51145068d0f59eca24c17463dd,,083b6eb1a4eb6641602f1fc90d7f86b9,41.464774,74.529537,85632761,uuuu,KG,KG,1463442825,41.68268,74.524734,0,Kyrgyzstan,102191569,856/327/61/85632761.geojson,country,0,quattroshapes,,,KG
"102.144248917,8.377943993,109.474586487,23.393395",uuuu,85632763,,3b448f843198e01cd09d10454976767e,,fa8adecae09a7c76d58d4d3d7c3b108a,16.654637,106.306567,85632763,uuuu,VN,VN,1463442754,21.732568,105.396672,0,Vietnam,102191569,856/327/63/85632763.geojson,country,0,quattroshapes,,,VN
"6.460416794,-0.012944444,7.474555492,1.731250048",uuuu,85632765,,0beec992c206da06bfbcff1c18e8fa86,,18d5ba059c0395e1ee40893b7f33d13a,0.411279,6.700564,85632765,uuuu,ST,ST,1463442751,0.252119,6.600203,0,Sao Tome and Principe,102191573,856/327/65/85632765.geojson,country,0,quattroshapes,,,ST
"43.4472125,38.840244,46.634222,41.300993",uuuu,85632773,,426e56a7a71086ba97e6de5dee0e6e1c,,b9904fb5136afd8b42bc56e63f1c64ef,40.294682,44.938953,85632773,uuuu,AM,AM,1463442828,40.474724,44.80561,0,Armenia,102191569,856/327/73/85632773.geojson,country,0,quattroshapes,,,AM
"36.433348,12.354723,43.1370479274,18.020413782",uuuu,85632781,,0298393bcd3e17dcb9d3ae47ad5acc00,,6ee27c40580be71881a95ed68a3fd23f,15.382148,38.842185,85632781,uuuu,ER,ER,1463442753,15.817362,38.267404,0,Eritrea,102191573,856/327/81/85632781.geojson,country,0,quattroshapes,,,ER
"9.5299595,46.372299,17.1607035,49.020336",uuuu,85632785,,643bfe79a0b6840c16c1c71b87a757b2,,ea294dbd140ddb36fb0aa7ae8240c2f3,47.586911,14.141446,85632785,uuuu,AT,AT,1463442822,47.522617,14.143702,0,Austria,102191581,856/327/85/85632785.geojson,country,0,quattroshapes,,,AT
"112.921113952,-43.740509603,159.109219008,-9.142175977",uuuu,85632793,,4f682df7898d5ee3a5b9479d36e71c9b,,a5ce11014f15a89c170edeb445ea86be,-25.728398,134.490287,85632793,uuuu,AU,AU,1463442765,-23.992438,134.050443,0,Australia,102191583,856/327/93/85632793.geojson,country,0,quattroshapes,,,AU
"2.546011,49.497238,6.406391,51.5048445",uuuu,85632997,,dc648b24959e3f78bccb6a2f9f4bdfa0,,dc288747079426fe5d824cafe7f6dcb8,50.640991,4.66092,85632997,uuuu,BE,BE,1463442849,50.780688,4.792712,0,Belgium,102191581,856/329/97/85632997.geojson,country,0,quattroshapes,,,BE
"22.3583785,41.238374,28.605693,44.2156925",uuuu,85633001,,67b07a14f7a830a2a01f40366776ba1f,,3c9548219da47e56ef14013bc81c1f5a,42.758554,25.236214,85633001,uuuu,BG,BG,1463442914,42.501868,25.176846,0,Bulgaria,102191581,856/330/01/85633001.geojson,country,0,quattroshapes,,,BG
"-73.982817,-33.750991,-28.84148586,5.271602",uuuu,85633009,,c3909639df24ac87bc199445746bf28a,,1ea764c9f532993378cbfc5427839fa2,-10.768273,-53.085014,85633009,uuuu,BR,BR,1463442915,-11.928923,-49.542449,0,Brazil,102191577,856/330/09/85633009.geojson,country,0,quattroshapes,,,BR
"-141.005549,41.669086,-52.615931,83.116116",uuuu,85633041,,57503ea638c847e2917af4dddb06fab9,,37c667dd9074e244311e12471b36998e,61.373126,-98.316063,85633041,uuuu,CA,CA,1463442912,58.33747,-112.384858,0,Canada,102191575,856/330/41/85633041.geojson,country,0,naturalearth,,,CA
"5.95590226131,45.8179811114,10.4920636865,47.8084532093",uuuu,85633051,,e1bd6d061917d860726272d7f3fc13d9,,ed85911b6c2f5ec824f16898b61a3b40,46.800148,8.229121,85633051,uuuu,CH,CH,1463442921,46.730219,7.509687,0,Switzerland,102191581,856/330/51/85633051.geojson,country,0,quattroshapes,,,CH
"-109.444168091,-55.9792976379,-66.413772583,-17.4984741211",uuuu,85633057,,adb7487732796e26d6a0903ef328f461,,1204bf3dd72ff04b3deaefb3f99f86bc,-37.979008,-71.38955,85633057,uuuu,CL,CL,1452291279,-38.165295,-72.288079,0,Chile,102191577,856/330/57/85633057.geojson,country,0,quattroshapes,,,CL
"12.076141,48.557916,18.837434,51.040012",uuuu,85633105,,56ee35884a43243cca745c4d8ae064f2,,e875f57f68d87dce89de1ec09464a440,49.732448,15.314103,85633105,uuuu,CZ,CZ,1463442943,49.88233,15.377705,0,Czech Republic,102191581,856/331/05/85633105.geojson,country,0,naturalearth,,,CZ
"5.866003,47.2703515,15.0414895,55.0573745",uuuu,85633111,,5692d9eb650fc04a7b3fd30e6520bc61,,0cf80bfc7c64bc0a5960b60fce8154ab,51.112876,10.391873,85633111,uuuu,DE,DE,1463442944,51.196755,9.62743,0,Germany,102191581,856/331/11/85633111.geojson,country,0,quattroshapes,,85633115,DE
"8.094005,54.56859,15.151378,57.751166",uuuu,85633121,,b55bbed1d55e944d853eba354f6d8698,,759829caa19fdb1e5799be8a0337c920,55.965378,10.05139,85633121,uuuu,DK,DK,1463442943,55.966966,9.018163,0,Denmark,102191581,856/331/21/85633121.geojson,country,0,naturalearth,,,DK
"-18.167226,27.642239,4.337087,43.793443",uuuu,85633129,,01cc1c082f16fd3c4fec731896284aeb,,66c16dd35d34460d16f786cb04e5a624,40.227234,-3.652637,85633129,uuuu,ES,ES,1463442943,40.09095,-3.464618,0,Spain,102191581,856/331/29/85633129.geojson,country,0,naturalearth,,,ES
"21.832367,57.515819,28.186475,59.670885",uuuu,85633135,,8d353abcb05f92e983399b6b8d4e8cd4,,1d90fa16d1e23a38a24a9f5cca2cd890,58.671014,25.535793,85633135,uuuu,EE,EE,1463442943,58.722853,25.867131,0,Estonia,102191581,856/331/35/85633135.geojson,country,0,naturalearth,,,EE
"20.623165,59.811225,31.569525,70.07531",uuuu,85633143,,a1e2e04688f177cb4f8899c2102320ee,,58169193cce47fec62257b5afd651d08,64.495359,26.270795,85633143,uuuu,FI,FI,1463442943,63.252357,27.276469,0,Finland,102191581,856/331/43/85633143.geojson,country,0,naturalearth,,,FI
"-61.797076,-21.370839,55.855019,51.087167",uuuu,85633147,,f21b75eef58f6dc732b77e0db80f13a4,,503867d9e4735de64a283f86d43c6079,42.171601,-2.770525,85633147,uuuu,FR,FR,1463442943,46.698481,2.549047,0,France,102191581,856/331/47/85633147.geojson,country,0,naturalearth,,,FR
"-13.691314,49.909613,1.771169,60.847886",uuuu,85633159,,caed10aa1eeae1e067a51a0ff73b7a25,,8ca5a81ee6f8fe87c87baf15ccadffde,54.147048,-2.886952,85633159,uuuu,GB,GB,1463442943,52.418788,-1.247349,0,United Kingdom,102191581,856/331/59/85633159.geojson,country,0,naturalearth,,,GB
"39.985976,41.044111,46.694803,43.575843",uuuu,85633163,,406b135e1f3724446ab1b6d8c3e4825f,,10b30242f6fa5943fd804810e8e9df29,42.168801,43.507526,85633163,uuuu,GE,GE,1463442943,41.870087,43.735725,0,Georgia,102191569,856/331/63/85633163.geojson,country,0,naturalearth,,,GE
"19.626475,34.815009,28.239757,41.750476",uuuu,85633171,,6eab944a128b9d19672cba0edbaa9b52,,bd2c2e871faf0d3fc30d9ce239650141,39.051181,22.974819,85633171,uuuu,GR,GR,1463442943,39.78331,21.708535,0,Greece,102191581,856/331/71/85633171.geojson,country,0,naturalearth,,,GR
"-73.05724,59.792629,-11.37682,83.634101",uuuu,85633217,,2baade289ac3f9eb632a48e60d3d1536,,ce62daebcf7b4be8bce08da87f0da8a5,74.735991,-41.345739,85633217,uuuu,GL,GL,1463442922,74.319379,-39.335081,0,Greenland,102191575,856/332/17/85633217.geojson,country,0,naturalearth,,,GL
"13.501475,42.416327,19.407838,46.546979",uuuu,85633229,,053040ddb4ed384416923b959f39705a,,42ad534ad041607001aeaa4a946a5d8d,45.067726,16.398549,85633229,uuuu,HR,HR,1463442922,45.805356,16.375139,0,Croatia,102191581,856/332/29/85633229.geojson,country,0,naturalearth,,,HR
"16.094035,45.741343,22.877601,48.569233",uuuu,85633237,,7243339a882d662ef250b5036c27745e,,725af755df1601e0df488f3dff206eba,47.163244,19.396759,85633237,uuuu,HU,HU,1463442923,47.086857,19.447899,0,Hungary,102191581,856/332/37/85633237.geojson,country,0,naturalearth,,,HU
"-10.478179,51.445705,-5.99352,55.386379",uuuu,85633241,,5e0ae8be0b4c8ef83fcf9ea52341aa3b,,ae32f3614ade371ce0b4c0c474362e15,53.178221,-8.145045,85633241,uuuu,IE,IE,1463442923,53.078731,-7.798618,0,Ireland,102191581,856/332/41/85633241.geojson,country,0,naturalearth,,,IE
"-24.539906,63.396715,-13.502919,66.564154",uuuu,85633249,,8bc7ef9f0ff5d11d504e3ce07156410c,,b1eafc404bc4b3d8f8e8df70fa6d5057,64.998316,-18.596446,85633249,uuuu,IS,IS,1463442923,64.779262,-18.673522,0,Iceland,102191581,856/332/49/85633249.geojson,country,0,naturalearth,,,IS
"6.602728,35.489244,18.517426,47.085215",uuuu,85633253,,b1d2bbdb51bb3241e7e4ec613de7a966,,1ce843f83154ca103081b9de075a2cfd,42.786434,12.071907,85633253,uuuu,IT,IT,1463442923,44.732552,11.077303,0,Italy,102191581,856/332/53/85633253.geojson,country,0,naturalearth,,,IT
"20.014279,41.852799,21.7899725,43.2679535",uuuu,85633259,,c78a300c5b4f0bd8fc3774af22d35c87,,5e007410fa16e8fbcba92469fc052408,42.581482,20.889203,85633259,uuuu,XK,XK,1463442923,42.590239,20.875449,0,Kosovo,102191581,856/332/59/85633259.geojson,country,0,quattroshapes,,,XK
"9.475886,47.0524,9.615723,47.262801",uuuu,85633267,,19f8848e5347879d432c7bed702b137d,,2829da0e4818b1914d1202e947317ada,47.138206,9.5409,85633267,uuuu,LI,LI,1463442923,47.111405,9.559439,0,Liechtenstein,102191581,856/332/67/85633267.geojson,country,0,naturalearth,,,LI
"20.924569,53.886841,26.80072,56.442602",uuuu,85633269,,eb1aa1c0addf9b103b4effea336ee864,,48852d97345dedcc8b69692fc79e6020,55.327024,23.888249,85633269,uuuu,LT,LT,1463442923,55.103703,24.089932,0,Lithuania,102191581,856/332/69/85633269.geojson,country,0,naturalearth,,,LT
"5.735759,49.4478385,6.5296005,50.1827815",uuuu,85633275,,2a1e5a5d586bfb77b2929bff5c5df43d,,ac9729b48977e461e491c6fe39d3b063,49.776861,6.092603,85633275,uuuu,LU,LU,1463442923,49.759178,6.086636,0,Luxembourg,102191581,856/332/75/85633275.geojson,country,0,quattroshapes,,,LU
"20.968598,55.666991,28.217275,58.075138",uuuu,85633279,,86d739e9cfac84667d921e23ae683367,,a1dd6eeebb3218d20e998a00105c7167,56.851819,24.908622,85633279,uuuu,LV,LV,1463442923,57.06689,25.458464,0,Latvia,102191581,856/332/79/85633279.geojson,country,0,naturalearth,,,LV
"7.36575,43.717969,7.437454,43.763506",uuuu,85633285,,d8bfee05da650df249c2ec02010283f2,,2bc3e64d266b9274a26ffcfad70b7f3f,43.739846,7.398974,85633285,uuuu,MC,MC,1463442923,43.739652,7.398291,0,Monaco,102191581,856/332/85/85633285.geojson,country,0,naturalearth,,,MC
"26.617889,45.461774,30.131576,48.486034",uuuu,85633287,,e699981beba5cf319ddf5359d3b3e021,,d06f022af5df2e7009859b4b54ae4e2d,47.195101,28.461397,85633287,uuuu,MD,MD,1463442922,47.435,28.487904,0,Moldova,102191581,856/332/87/85633287.geojson,country,0,naturalearth,,,MD
"-118.368804,14.546283,-86.700592,32.712836",uuuu,85633293,,787fae2da8c980039cbf6b2af8fad65e,,30c43eb4561d42e3ecd394cee5dd7a96,23.949171,-102.530308,85633293,uuuu,MX,MX,1463442922,23.920061,-102.289691,0,Mexico,102191575,856/332/93/85633293.geojson,country,0,naturalearth,,,MX
"14.183606,35.806459,14.576155,36.0824385",uuuu,85633331,,e9647f680a93e3513ec1ac4103474bfb,,304a87ee826f4f3aa13ac8a460d75024,35.922645,14.399911,85633331,uuuu,MT,MT,1463442944,35.888972,14.431432,0,Malta,102191581,856/333/31/85633331.geojson,country,0,quattroshapes,,,MT
"3.30944,50.7506675,7.2309025,53.565815",uuuu,85633337,,9c3f1c180732ce071239b678ac44537e,,664b8c85a5ac710a2dd7e35022194ca6,52.317332,5.530858,85633337,uuuu,NL,NL,1463443081,52.554205,5.501896,0,Netherlands,102191581,856/333/37/85633337.geojson,country,0,quattroshapes,,,NL
"-9.116829,-54.462359,33.641026,80.769748",uuuu,85633341,,cc0b3d759c646ddc13704b6153eafb07,,5254a1581623da3bffd2de5c6f908223,68.7964,15.41245,85633341,uuuu,NO,NO,1463443080,61.356908,9.680372,0,Norway,102191581,856/333/41/85633341.geojson,country,0,naturalearth,,,NO
"166.426148132,-47.2899924965,178.577243781,-33.9584981387",uuuu,85633345,,2ed12e951eea794267bc31700adb5f98,,c30335cfeffa215310dc6ba32357e613,-41.735409,172.590761,85633345,uuuu,NZ,NZ,1463442959,-45.175323,169.232531,0,New Zealand,102191583,856/333/45/85633345.geojson,country,0,quattroshapes,,,NZ
"14.1234075,49.0020255,24.145796,54.835812",uuuu,85633723,,539abc21adb37a75bba156b79241fcd2,,8c7340582f4305776571567a8a3134d2,52.128666,19.393453,85633723,uuuu,PL,PL,1463442911,51.899304,20.388926,0,Poland,102191581,856/337/23/85633723.geojson,country,0,quattroshapes,,,PL
"-31.268219,30.136984,-6.189352,42.1544195",uuuu,85633735,,6361e0acda5dffcc6f40c83a61e914cc,,aa157cef44b146fcb8cbc7f106f7becc,39.592701,-8.521417,85633735,uuuu,PT,PT,1463442911,39.225448,-8.266333,0,Portugal,102191581,856/337/35/85633735.geojson,country,0,quattroshapes,,,PT
"34.2180023193,31.2239627838,35.5723571777,32.5520515442",uuuu,85633739,,f43365ab797c64270f590e2d17853e19,,4ab690a68a8820587464f2485670662e,31.920145,35.194468,85633739,uuuu,PS,PS,1463442909,32.052183,35.252175,0,Palestine,102191569,856/337/39/85633739.geojson,country,0,quattroshapes,,,PS
"20.2619515,43.619026,29.7152475,48.265152",uuuu,85633745,,bd73831a8991bdde3f831e682265a59f,,f7689491090ec331c687a97c60d208e3,45.839272,24.984658,85633745,uuuu,RO,RO,1463442910,45.727469,24.984652,0,Romania,102191581,856/337/45/85633745.geojson,country,0,quattroshapes,,,RO
"18.8476865,42.2321745,23.0058355,46.1900485",uuuu,85633755,,23d2d96ec8ca35fe897e671e7d13be8c,,5f2fd1dddd6dc8d7008656e86c5dff18,44.23001,20.793595,85633755,uuuu,RS,RS,1463442911,44.251791,20.589197,0,Serbia,102191581,856/337/55/85633755.geojson,country,0,quattroshapes,,,RS
"12.403652,43.8942945,12.515936,43.991993",uuuu,85633763,,a9199cd50b9f99b2ba7cb3e7691465b4,,7c4727b88152ce561130c7a1b1451c2b,43.938316,12.463208,85633763,uuuu,SM,SM,1463442905,43.934066,12.462139,0,San Marino,102191581,856/337/63/85633763.geojson,country,0,quattroshapes,,,SM
"16.832695,47.7313005,22.5691165,49.6099935",uuuu,85633769,,7cd78f3e6e6094d696034125e1179b23,,5b29aee92987d6e1c05f9cdc1a966ac2,48.707068,19.483743,85633769,uuuu,SK,SK,1463442911,48.752408,19.201811,0,Slovakia,102191581,856/337/69/85633769.geojson,country,0,quattroshapes,,,SK
"13.375854,45.421089,16.6105615,46.8765715",uuuu,85633779,,3f07903d97dcbb0e3ec4bfa25e668c7d,,02b9a2e73cd8d87ce532d2188b0709e0,46.119389,14.821852,85633779,uuuu,SI,SI,1463442910,46.068735,14.932759,0,Slovenia,102191581,856/337/79/85633779.geojson,country,0,quattroshapes,,,SI
"11.108165,55.342678,24.163414,69.036356",uuuu,85633789,,dbb21398d33b7866401586980249b91b,,9add23114f08905e86448cf26f00f845,62.7771,16.754466,85633789,uuuu,SE,SE,1463442905,65.859144,19.017205,0,Sweden,102191581,856/337/89/85633789.geojson,country,0,naturalearth,,,SE
"-179.231086,18.86546,179.859681,71.441059",uuuu,85633793,,55dba403108c51d43f1e98ea3ce847fa,,7d96e06aa71453702f35cb164705449e,45.964509,-113.2686,85633793,uuuu,US,US,1463442906,39.715956,-96.999668,0,United States,102191575,856/337/93/85633793.geojson,country,0,quattroshapes,,,US
"22.13284,44.380755,40.159543,52.368949",uuuu,85633805,,44c409fb461373fa5582ab4a9e08d526,,f0562267a69e7504c7b081b31b37314a,48.99725,31.385855,85633805,uuuu,UA,UA,1463442849,49.219469,33.023452,0,Ukraine,102191581,856/338/05/85633805.geojson,country,0,naturalearth,,,UA
"16.47055,-46.965814,37.978281,-22.126452",uuuu,85633813,,7397e5050b2554e46a2adddb48a9ef29,,725c36e80bee086990e05216aa5526c3,-29.001052,25.087733,85633813,uuuu,ZA,ZA,1463442849,-29.708985,23.666291,0,South Africa,102191573,856/338/13/85633813.geojson,country,0,quattroshapes,,,ZA
"41.781005,42.024813,41.781005,42.024813",uuuu,421166797,2016-03-29,9c4785c25779d580a68e702c3587f3a1,,811078a23ffe76fdeb5cb026d20e6d95,42.024813,41.781005,421166797,uuuu,GE,GE,1459272941,0,0,0,Georgia,102191569,421/166/797/421166797.geojson,country,0,quattroshapes,,,GE
"46.200828,5.16158,46.200828,5.16158",uuuu,421180189,2016-03-29,34286fca5e6e277ee2f64debeeac593b,,68062baa38ddd66561a32fbbfd2421d4,5.16158,46.200828,421180189,uuuu,SO,SO,1459272950,0,0,0,Somalia,102191573,421/180/189/421180189.geojson,country,0,quattroshapes,,,SO
"59.327545,47.999248,59.327545,47.999248",uuuu,421185849,2016-03-29,ea3cab2eb99c1e3ec7b964feff014f41,,6fbd83c3b27373a30258a97ff8b8175f,47.999248,59.327545,421185849,uuuu,KZ,KZ,1459272955,0,0,0,Kazakhstan,102191569,421/185/849/421185849.geojson,country,0,quattroshapes,,,KZ
"29.179687,16.888659,29.179687,16.888659",uuuu,421188081,2016-03-29,d89e60bf29f47ab6481a541e619e9b72,,f710385feda1a0f7ce06f37a851ef625,16.888659,29.179687,421188081,uuuu,SD,SD,1459272957,0,0,0,,102191573,421/188/081/421188081.geojson,country,0,quattroshapes,,,SD
"12.45979,43.942729,12.45979,43.942729",uuuu,421202109,2016-03-29,f67988bdcadfc7c5dac58dba2dd89218,,c77ff1d56f21e23b88f3450ee9f69265,43.942729,12.45979,421202109,uuuu,SM,SM,1459272968,0,0,0,San Marino,102191581,421/202/109/421202109.geojson,country,0,quattroshapes,,,SM
